TJS-7                   
1 49115U 21077A   26188.83815314 -.00000108  00000+0  00000+0 0  9993
2 49115   0.3050 264.2570 0003190 114.2701 109.5343  1.00270520  9758
CHINASAT 9B             
1 49125U 21080A   26188.87801795 -.00000298  00000+0  00000+0 0  9990
2 49125   0.0131  79.9557 0002139  59.5798 203.8123  1.00272267 17855
SHIJIAN-21 (SJ-21)      
1 49330U 21094A   26188.66409697 -.00000336  00000+0  00000+0 0  9998
2 49330   5.1585  61.0526 0051447 168.7238  62.5991  1.00283348  5568
SES-17                  
1 49332U 21095A   26188.18699484 -.00000257  00000+0  00000+0 0  9995
2 49332   0.0214  43.2783 0001280  90.4716 151.6318  1.00271019 18055
SYRACUSE 4A             
1 49333U 21095B   26188.43911676  .00000000  00000+0  00000+0 0  9999
2 49333   0.0227  36.3258 0001337  64.8621  27.8151  1.00270699 18156
QZS-1R (MICHIBIKI-1R)   
1 49336U 21096A   26188.59693977 -.00000264  00000+0  00000+0 0  9994
2 49336  37.5005  79.2823 0755406 272.1222 281.4736  1.00248309 17212
ZHONGXING-1D            
1 49505U 21114A   26188.81241301 -.00000321  00000+0  00000+0 0  9992
2 49505   0.0543 243.4211 0000155  55.5473  49.4760  1.00272813 17028
STPSAT-6                
1 49817U 21118A   26188.69322147 -.00000030  00000+0  00000+0 0  9993
2 49817   0.3704  85.2031 0000902 248.6524  89.6187  1.00270156 16778
EXPRESS AMU-7           
1 50001U 21123A   26188.88668468 -.00000227  00000+0  00000+0 0  9994
2 50001   0.0326 270.0806 0000292 106.3367  13.6372  1.00272457 16749
EXPRESS AMU-3           
1 50002U 21123B   26186.92555071  .00000000  00000+0  00000+0 0  9991
2 50002   0.0178 350.4254 0000463  17.7985 351.7769  1.00269062  7223
TIANLIAN 2-02           
1 50005U 21124A   26188.82047306  .00000001  00000+0  00000+0 0  9994
2 50005   0.8516  85.8295 0001095 163.4629 142.8466  1.00271794 16824
TURKSAT 5B              
1 50212U 21126A   26188.29594251  .00000161  00000+0  00000+0 0  9990
2 50212   0.0705 336.2837 0002551  19.9544  77.5642  1.00271148 16508
INMARSAT 6-F1           
1 50319U 21128A   26188.73196310 -.00000156  00000+0  00000+0 0  9998
2 50319   0.0210 289.1363 0000043 273.5812  70.2369  1.00270113 16469
SHIYAN-12 01 (SY-12 01) 
1 50321U 21129A   26188.72390308  .00000161  00000+0  00000+0 0  9999
2 50321   3.7241  79.6371 0002705 288.2079 221.6946  1.00047762 16704
SHIYAN-12 02 (SY-12 02) 
1 50322U 21129B   26188.73612311 -.00000336  00000+0  00000+0 0  9997
2 50322   3.7234  79.6381 0003073  66.7651 149.0857  1.00481370 16703
TJS-9                   
1 50574U 21135A   26188.17822729 -.00000285  00000+0  00000+0 0  9990
2 50574   0.0309 120.5640 0003434 306.5572  59.3524  1.00267264 16637
GOES 18                 
1 51850U 22021A   26188.68819478  .00000112  00000+0  00000+0 0  9994
2 51850   0.0064 156.3031 0000541  16.7420 223.3484  1.00271457  6795
ZHONGXING-6D            
1 52255U 22038A   26188.85872736 -.00000339  00000+0  00000+0 0  9999
2 52255   0.0452 253.4971 0000731 281.9318 184.5744  1.00269559 15620
NILESAT 301             
1 52817U 22061A   26188.71402156 -.00000042  00000+0  00000+0 0  9990
2 52817   0.0516 333.6259 0004266  88.0993 114.0406  1.00272864 14947
CMS-02 (GSAT-24)        
1 52903U 22067A   26188.44665679  .00000000  00000+0  00000+0 0  9996
2 52903   0.0145  50.2966 0000861 310.3788 168.5174  1.00269528 14813
MEASAT 3D               
1 52904U 22067B   26188.30564921 -.00000226  00000+0  00000+0 0  9991
2 52904   0.0278 345.7496 0000255 118.7223  22.3254  1.00268908 14853
SES-22                  
1 52933U 22071A   26187.76106745  .00000119  00000+0  00000+0 0  9993
2 52933   0.0347 275.9106 0001018 193.2307 310.5886  1.00273213  7718
WFOV (USA 332)          
1 52940U 22073A   26188.59641977 -.00000349  00000+0  00000+0 0  9992
2 52940   3.7598  78.2722 0001400 221.8092 319.5145  1.00271689 14570
TIANLIAN 2-03           
1 53100U 22078A   26188.64613462  .00000087  00000+0  00000+0 0  9998
2 53100   0.7223  77.3844 0000924 355.0019  96.4247  1.00274311 14754
SBIRS GEO-6 (USA 336)   
1 53355U 22092A   26188.74288316 -.00000275  00000+0  00000+0 0  9993
2 53355   3.2245 317.8040 0001870 148.9141 225.4355  1.00270873 14443
EUTELSAT KONNECT VHTS   
1 53765U 22110A   26188.57333146  .00000032  00000+0  00000+0 0  9992
2 53765   0.0590  99.0397 0002951 341.7984  53.8065  1.00268582  7042
ZHONGXING-1E            
1 53813U 22112A   26188.87403128 -.00000134  00000+0  00000+0 0  9993
2 53813   0.0403 125.1926 0000619 109.3687  87.3181  1.00269798 14055
SES-20                  
1 53960U 22123A   26187.91080358 -.00000086  00000+0  00000+0 0  9994
2 53960   0.0199  67.0885 0001997  23.9896  58.5838  1.00270215 13730
SES-21                  
1 53961U 22123B   26188.68940811  .00000000  00000+0  00000+0 0  9994
2 53961   0.0390  29.6608 0000958  74.3996 298.8529  1.00268218  7412
GALAXY 33 (G-33)        
1 54026U 22128A   26188.68897478  .00000094  00000+0  00000+0 0  9995
2 54026   0.0132 319.7629 0001771 147.6047 293.3254  1.00273136 13945
GALAXY 34 (G-34)        
1 54027U 22128B   26187.69175730  .00000000  00000+0  00000+0 0  9993
2 54027   0.0172  18.6774 0001829 102.5440 283.4893  1.00275248 14101
ANGOSAT 2               
1 54033U 22131A   26188.86246278  .00000151  00000+0  00000+0 0  9997
2 54033   0.0232 122.2576 0000038 160.8980 336.1527  1.00272425 13680
