OBJECT_NAME,OBJECT_ID,EPOCH,MEAN_MOTION,ECCENTRICITY,INCLINATION,RA_OF_ASC_NODE,ARG_OF_PERICENTER,MEAN_ANOMALY,EPHEMERIS_TYPE,CLASSIFICATION_TYPE,NORAD_CAT_ID,ELEMENT_SET_NO,REV_AT_EPOCH,BSTAR,MEAN_MOTION_DOT,MEAN_MOTION_DDOT
TJS-7,2021-077A,2026-07-07T20:06:56.431296,1.00270520,.000319,0.3050,264.2570,114.2701,109.5343,0,U,49115,999,975,0,-.108E-5,0
CHINASAT 9B,2021-080A,2026-07-07T21:04:20.750880,1.00272267,.0002139,0.0131,79.9557,59.5798,203.8123,0,U,49125,999,1785,0,-.298E-5,0
SHIJIAN-21 (SJ-21),2021-094A,2026-07-07T15:56:17.978208,1.00283348,.0051447,5.1585,61.0526,168.7238,62.5991,0,U,49330,999,556,0,-.336E-5,0
SES-17,2021-095A,2026-07-07T04:29:16.354176,1.00271019,.00012808,0.0214,43.2783,90.4716,151.6318,0,U,49332,999,1805,0,-.257E-5,0
SYRACUSE 4A,2021-095B,2026-07-07T10:32:19.688064,1.00270699,.00013374,0.0227,36.3258,64.8621,27.8151,0,U,49333,999,1815,0,0,0
QZS-1R (MICHIBIKI-1R),2021-096A,2026-07-07T14:19:35.596128,1.00248309,.0755406,37.5005,79.2823,272.1222,281.4736,0,U,49336,999,1721,0,-.264E-5,0
ZHONGXING-1D,2021-114A,2026-07-07T19:29:52.484064,1.00272813,.0000155,0.0543,243.4211,55.5473,49.4760,0,U,49505,999,1702,0,-.321E-5,0
STPSAT-6,2021-118A,2026-07-07T16:38:14.335008,1.00270156,.0000902,0.3704,85.2031,248.6524,89.6187,0,U,49817,999,1677,0,-.3E-6,0
EXPRESS AMU-7,2021-123A,2026-07-07T21:16:49.556352,1.00272457,.0000292,0.0326,270.0806,106.3367,13.6372,0,U,50001,999,1674,0,-.227E-5,0
EXPRESS AMU-3,2021-123B,2026-07-05T22:12:47.581344,1.00269062,.00004631,0.0178,350.4254,17.7985,351.7769,0,U,50002,999,722,0,0,0
TIANLIAN 2-02,2021-124A,2026-07-07T19:41:28.872384,1.00271794,.0001095,0.8516,85.8295,163.4629,142.8466,0,U,50005,999,1682,0,.1E-7,0
TURKSAT 5B,2021-126A,2026-07-07T07:06:09.432864,1.00271148,.00025514,0.0705,336.2837,19.9544,77.5642,0,U,50212,999,1650,0,.161E-5,0
INMARSAT 6-F1,2021-128A,2026-07-07T17:34:01.611840,1.00270113,.0000043,0.0210,289.1363,273.5812,70.2369,0,U,50319,999,1646,0,-.156E-5,0
SHIYAN-12 01 (SY-12 01),2021-129A,2026-07-07T17:22:25.226112,1.00047762,.0002705,3.7241,79.6371,288.2079,221.6946,0,U,50321,999,1670,0,.161E-5,0
SHIYAN-12 02 (SY-12 02),2021-129B,2026-07-07T17:40:01.036704,1.00481370,.0003073,3.7234,79.6381,66.7651,149.0857,0,U,50322,999,1670,0,-.336E-5,0
TJS-9,2021-135A,2026-07-07T04:16:38.837856,1.00267264,.00034341,0.0309,120.5640,306.5572,59.3524,0,U,50574,999,1663,0,-.285E-5,0
GOES 18,2022-021A,2026-07-07T16:31:00.028992,1.00271457,.0000541,0.0064,156.3031,16.7420,223.3484,0,U,51850,999,679,0,.112E-5,0
ZHONGXING-6D,2022-038A,2026-07-07T20:36:34.043904,1.00269559,.0000731,0.0452,253.4971,281.9318,184.5744,0,U,52255,999,1562,0,-.339E-5,0
NILESAT 301,2022-061A,2026-07-07T17:08:11.462784,1.00272864,.0004266,0.0516,333.6259,88.0993,114.0406,0,U,52817,999,1494,0,-.42E-6,0
CMS-02 (GSAT-24),2022-067A,2026-07-07T10:43:11.146656,1.00269528,.00008613,0.0145,50.2966,310.3788,168.5174,0,U,52903,999,1481,0,0,0
MEASAT 3D,2022-067B,2026-07-07T07:20:08.091744,1.00268908,.0000255,0.0278,345.7496,118.7223,22.3254,0,U,52904,999,1485,0,-.226E-5,0
SES-22,2022-071A,2026-07-06T18:15:56.227680,1.00273213,.00010187,0.0347,275.9106,193.2307,310.5886,0,U,52933,999,771,0,.119E-5,0
WFOV (USA 332),2022-073A,2026-07-07T14:18:50.668128,1.00271689,.00014,3.7598,78.2722,221.8092,319.5145,0,U,52940,999,1457,0,-.349E-5,0
TIANLIAN 2-03,2022-078A,2026-07-07T15:30:26.031168,1.00274311,.0000924,0.7223,77.3844,355.0019,96.4247,0,U,53100,999,1475,0,.87E-6,0
SBIRS GEO-6 (USA 336),2022-092A,2026-07-07T17:49:45.105024,1.00270873,.000187,3.2245,317.8040,148.9141,225.4355,0,U,53355,999,1444,0,-.275E-5,0
EUTELSAT KONNECT VHTS,2022-110A,2026-07-07T13:45:35.838144,1.00268582,.0002951,0.0590,99.0397,341.7984,53.8065,0,U,53765,999,704,0,.32E-6,0
ZHONGXING-1E,2022-112A,2026-07-07T20:58:36.302592,1.00269798,.0000619,0.0403,125.1926,109.3687,87.3181,0,U,53813,999,1405,0,-.134E-5,0
SES-20,2022-123A,2026-07-06T21:51:33.429312,1.00270215,.0001997,0.0199,67.0885,23.9896,58.5838,0,U,53960,999,1373,0,-.86E-6,0
SES-21,2022-123B,2026-07-07T16:32:44.860704,1.00268218,.0000958,0.0390,29.6608,74.3996,298.8529,0,U,53961,999,741,0,0,0
GALAXY 33 (G-33),2022-128A,2026-07-07T16:32:07.420992,1.00273136,.0001771,0.0132,319.7629,147.6047,293.3254,0,U,54026,999,1394,0,.94E-6,0
GALAXY 34 (G-34),2022-128B,2026-07-06T16:36:07.830720,1.00275248,.00018292,0.0172,18.6774,102.5440,283.4893,0,U,54027,999,1410,0,0,0
ANGOSAT 2,2022-131A,2026-07-07T20:41:56.784192,1.00272425,.0000038,0.0232,122.2576,160.8980,336.1527,0,U,54033,999,1368,0,.151E-5,0
